IRIDIUM 106             
1 41917U 17003A   24359.85460514  .00000517  00000+0  17742-3 0  9995
2 41917  86.3965 313.9053 0001888  89.0424 271.0988 14.34220029415908
IRIDIUM 103             
1 41918U 17003B   24359.84192120  .00000249  00000+0  81891-4 0  9999
2 41918  86.3968 313.8118 0001765  68.5865 291.5519 14.34219478415923
IRIDIUM 109             
1 41919U 17003C   24359.91803482 -.00000014  00000+0 -11926-4 0  9992
2 41919  86.3967 313.8307 0002228  81.1053 279.0395 14.34217754415904
IRIDIUM 102             
1 41920U 17003D   24359.88632189 -.00000004  00000+0 -84698-5 0  9990
2 41920  86.3965 313.7792 0002117  87.1875 272.9563 14.34217594415985
IRIDIUM 105             
1 41921U 17003E   24359.85706695  .00000345  00000+0  11629-3 0  9990
2 41921  86.3968 282.2128 0001976  84.0032 276.1389 14.34216910417834
IRIDIUM 104             
1 41922U 17003F   24359.89900724  .00000195  00000+0  62732-4 0  9999
2 41922  86.3968 313.8080 0002546  75.4124 284.7353 14.34218631415974
IRIDIUM 114             
1 41923U 17003G   24359.62627155  .00000706  00000+0  24516-3 0  9990
2 41923  86.3968 313.9071 0002047  79.9669 280.1758 14.34221783415910
IRIDIUM 108             
1 41924U 17003H   24359.86386458  .00000795  00000+0  27680-3 0  9998
2 41924  86.3963 282.1218 0002033  88.0214 272.1215 14.34222697417802
